[
    {
        "Altitude(m)": 611965.2310538671,
        "Argument of Periapsis(deg)": 0.0,
        "Eccentricity": 0.0,
        "Inclination(deg)": 60.0,
        "Latitude(deg)": 59.14030008655955,
        "Longitude(deg)": 128.96989780632867,
        "Mean Anomaly(deg)": 81.81820000000003,
        "RAAN(deg)": 155.0,
        "Satellite Name": "Test1 687",
        "Satellite Number": 687,
        "Semi-Major Axis(m)": 6980739.136638005,
        "Time(s)": 0
    },
    {
        "Altitude(m)": 611995.8561151976,
        "Argument of Periapsis(deg)": 0.00010418945913296404,
        "Eccentricity": 0.0,
        "Inclination(deg)": 60.0,
        "Latitude(deg)": 59.28339909396486,
        "Longitude(deg)": 130.10326502133077,
        "Mean Anomaly(deg)": 82.43830614546184,
        "RAAN(deg)": 154.99957995086027,
        "Satellite Name": "Test1 687",
        "Satellite Number": 687,
        "Semi-Major Axis(m)": 6980739.136638005,
        "Time(s)": 10
    }
]